[
  {
    "OBJECT_NAME": "TANDEM-X",
    "OBJECT_ID": "2010-030A",
    "EPOCH": "2025-05-17T10:55:23.759904",
    "MEAN_MOTION": 15.19151704,
    "ECCENTRICITY": 0.0001767,
    "INCLINATION": 97.4448,
    "RA_OF_ASC_NODE": 145.817,
    "ARG_OF_PERICENTER": 81.9072,
    "MEAN_ANOMALY": 278.2363,
    "EPHEMERIS_TYPE": 0,
    "CLASSIFICATION_TYPE": "U",
    "NORAD_CAT_ID": 36605,
    "ELEMENT_SET_NO": 999,
    "REV_AT_EPOCH": 82655,
    "BSTAR": 5.8756e-05,
    "MEAN_MOTION_DOT": 1.167e-05,
    "MEAN_MOTION_DDOT": 0
  },
  {
    "OBJECT_NAME": "CARTOSAT-2B",
    "OBJECT_ID": "2010-035A",
    "EPOCH": "2025-05-17T19:48:14.925600",
    "MEAN_MOTION": 14.7874946,
    "ECCENTRICITY": 0.0012312,
    "INCLINATION": 97.8103,
    "RA_OF_ASC_NODE": 193.2338,
    "ARG_OF_PERICENTER": 40.4543,
    "MEAN_ANOMALY": 319.7581,
    "EPHEMERIS_TYPE": 0,
    "CLASSIFICATION_TYPE": "U",
    "NORAD_CAT_ID": 36795,
    "ELEMENT_SET_NO": 999,
    "REV_AT_EPOCH": 80150,
    "BSTAR": 0.00015263,
    "MEAN_MOTION_DOT": 1.072e-05,
    "MEAN_MOTION_DDOT": 0
  },
  {
    "OBJECT_NAME": "YAOGAN-10",
    "OBJECT_ID": "2010-038A",
    "EPOCH": "2025-05-17T21:06:07.278624",
    "MEAN_MOTION": 14.84174293,
    "ECCENTRICITY": 0.0001461,
    "INCLINATION": 97.9269,
    "RA_OF_ASC_NODE": 159.0923,
    "ARG_OF_PERICENTER": 86.9401,
    "MEAN_ANOMALY": 35.8058,
    "EPHEMERIS_TYPE": 0,
    "CLASSIFICATION_TYPE": "U",
    "NORAD_CAT_ID": 36834,
    "ELEMENT_SET_NO": 999,
    "REV_AT_EPOCH": 79862,
    "BSTAR": 0.0001179,
    "MEAN_MOTION_DOT": 9.32e-06,
    "MEAN_MOTION_DDOT": 0
  },
  {
    "OBJECT_NAME": "COSMO-SKYMED 4",
    "OBJECT_ID": "2010-060A",
    "EPOCH": "2025-05-17T19:58:16.883040",
    "MEAN_MOTION": 14.82149998,
    "ECCENTRICITY": 0.0001313,
    "INCLINATION": 97.8874,
    "RA_OF_ASC_NODE": 322.1745,
    "ARG_OF_PERICENTER": 85.5556,
    "MEAN_ANOMALY": 274.5807,
    "EPHEMERIS_TYPE": 0,
    "CLASSIFICATION_TYPE": "U",
    "NORAD_CAT_ID": 37216,
    "ELEMENT_SET_NO": 999,
    "REV_AT_EPOCH": 78606,
    "BSTAR": 9.2486e-05,
    "MEAN_MOTION_DOT": 6.84e-06,
    "MEAN_MOTION_DDOT": 0
  },
  {
    "OBJECT_NAME": "RESOURCESAT-2",
    "OBJECT_ID": "2011-015A",
    "EPOCH": "2025-05-17T21:17:48.920928",
    "MEAN_MOTION": 14.2157325,
    "ECCENTRICITY": 0.0004665,
    "INCLINATION": 98.8095,
    "RA_OF_ASC_NODE": 202.0554,
    "ARG_OF_PERICENTER": 276.3483,
    "MEAN_ANOMALY": 83.7162,
    "EPHEMERIS_TYPE": 0,
    "CLASSIFICATION_TYPE": "U",
    "NORAD_CAT_ID": 37387,
    "ELEMENT_SET_NO": 999,
    "REV_AT_EPOCH": 73054,
    "BSTAR": 0.00011313,
    "MEAN_MOTION_DOT": 2.03e-06,
    "MEAN_MOTION_DDOT": 0
  },
  {
    "OBJECT_NAME": "HAIYANG-2A",
    "OBJECT_ID": "2011-043A",
    "EPOCH": "2025-05-17T20:46:05.253312",
    "MEAN_MOTION": 13.78814532,
    "ECCENTRICITY": 2.03e-05,
    "INCLINATION": 99.3327,
    "RA_OF_ASC_NODE": 142.0118,
    "ARG_OF_PERICENTER": 86.715,
    "MEAN_ANOMALY": 273.4025,
    "EPHEMERIS_TYPE": 0,
    "CLASSIFICATION_TYPE": "U",
    "NORAD_CAT_ID": 37781,
    "ELEMENT_SET_NO": 999,
    "REV_AT_EPOCH": 69245,
    "BSTAR": 4.4255e-05,
    "MEAN_MOTION_DOT": 1e-08,
    "MEAN_MOTION_DDOT": 0
  },
  {
    "OBJECT_NAME": "RASAT",
    "OBJECT_ID": "2011-044D",
    "EPOCH": "2025-05-17T19:50:14.676000",
    "MEAN_MOTION": 14.675621,
    "ECCENTRICITY": 0.002088,
    "INCLINATION": 98.0666,
    "RA_OF_ASC_NODE": 230.1976,
    "ARG_OF_PERICENTER": 9.1861,
    "MEAN_ANOMALY": 139.006,
    "EPHEMERIS_TYPE": 0,
    "CLASSIFICATION_TYPE": "U",
    "NORAD_CAT_ID": 37791,
    "ELEMENT_SET_NO": 999,
    "REV_AT_EPOCH": 73520,
    "BSTAR": 0.0001392,
    "MEAN_MOTION_DOT": 7.43e-06,
    "MEAN_MOTION_DDOT": 0
  },
  {
    "OBJECT_NAME": "SRMSAT",
    "OBJECT_ID": "2011-058D",
    "EPOCH": "2025-05-17T20:15:08.345376",
    "MEAN_MOTION": 14.11429095,
    "ECCENTRICITY": 0.0011712,
    "INCLINATION": 19.9727,
    "RA_OF_ASC_NODE": 292.1368,
    "ARG_OF_PERICENTER": 174.5686,
    "MEAN_ANOMALY": 306.3864,
    "EPHEMERIS_TYPE": 0,
    "CLASSIFICATION_TYPE": "U",
    "NORAD_CAT_ID": 37841,
    "ELEMENT_SET_NO": 999,
    "REV_AT_EPOCH": 70211,
    "BSTAR": 0.00011168,
    "MEAN_MOTION_DOT": 4.7e-06,
    "MEAN_MOTION_DDOT": 0
  },
  {
    "OBJECT_NAME": "PLEIADES 1A",
    "OBJECT_ID": "2011-076F",
    "EPOCH": "2025-05-17T20:22:55.333920",
    "MEAN_MOTION": 14.58532937,
    "ECCENTRICITY": 0.0001045,
    "INCLINATION": 98.1984,
    "RA_OF_ASC_NODE": 213.585,
    "ARG_OF_PERICENTER": 91.0689,
    "MEAN_ANOMALY": 1.8021,
    "EPHEMERIS_TYPE": 0,
    "CLASSIFICATION_TYPE": "U",
    "NORAD_CAT_ID": 38012,
    "ELEMENT_SET_NO": 999,
    "REV_AT_EPOCH": 71437,
    "BSTAR": 0.00012201,
    "MEAN_MOTION_DOT": 5.21e-06,
    "MEAN_MOTION_DDOT": 0
  },
  {
    "OBJECT_NAME": "ZIYUAN 1-02C (ZY 1-02C)",
    "OBJECT_ID": "2011-079A",
    "EPOCH": "2025-05-17T20:45:15.638976",
    "MEAN_MOTION": 14.37745975,
    "ECCENTRICITY": 0.0007426,
    "INCLINATION": 98.4539,
    "RA_OF_ASC_NODE": 207.4636,
    "ARG_OF_PERICENTER": 57.363,
    "MEAN_ANOMALY": 81.1866,
    "EPHEMERIS_TYPE": 0,
    "CLASSIFICATION_TYPE": "U",
    "NORAD_CAT_ID": 38038,
    "ELEMENT_SET_NO": 999,
    "REV_AT_EPOCH": 70244,
    "BSTAR": 0.0002273,
    "MEAN_MOTION_DOT": 6.41e-06,
    "MEAN_MOTION_DDOT": 0
  },
  {
    "OBJECT_NAME": "ZIYUAN 3-1 (ZY 3-1)",
    "OBJECT_ID": "2012-001A",
    "EPOCH": "2025-05-17T20:16:57.857376",
    "MEAN_MOTION": 15.51933177,
    "ECCENTRICITY": 0.000395,
    "INCLINATION": 97.1983,
    "RA_OF_ASC_NODE": 202.3995,
    "ARG_OF_PERICENTER": 47.8904,
    "MEAN_ANOMALY": 312.2685,
    "EPHEMERIS_TYPE": 0,
    "CLASSIFICATION_TYPE": "U",
    "NORAD_CAT_ID": 38046,
    "ELEMENT_SET_NO": 999,
    "REV_AT_EPOCH": 74250,
    "BSTAR": 0.0004158,
    "MEAN_MOTION_DOT": 0.00024908,
    "MEAN_MOTION_DDOT": 0
  },
  {
    "OBJECT_NAME": "ARIRANG-3 (KOMPSAT-3)",
    "OBJECT_ID": "2012-025B",
    "EPOCH": "2025-05-17T19:33:50.645664",
    "MEAN_MOTION": 14.62473211,
    "ECCENTRICITY": 0.0005641,
    "INCLINATION": 98.3049,
    "RA_OF_ASC_NODE": 91.239,
    "ARG_OF_PERICENTER": 263.1165,
    "MEAN_ANOMALY": 96.9395,
    "EPHEMERIS_TYPE": 0,
    "CLASSIFICATION_TYPE": "U",
    "NORAD_CAT_ID": 38338,
    "ELEMENT_SET_NO": 999,
    "REV_AT_EPOCH": 69367,
    "BSTAR": 0.00014757,
    "MEAN_MOTION_DOT": 6.99e-06,
    "MEAN_MOTION_DDOT": 0
  },
  {
    "OBJECT_NAME": "EXACTVIEW-1 (ADS-1B)",
    "OBJECT_ID": "2012-039C",
    "EPOCH": "2025-05-17T13:14:08.482848",
    "MEAN_MOTION": 14.24808711,
    "ECCENTRICITY": 0.0010154,
    "INCLINATION": 98.9505,
    "RA_OF_ASC_NODE": 241.7363,
    "ARG_OF_PERICENTER": 227.7477,
    "MEAN_ANOMALY": 132.2841,
    "EPHEMERIS_TYPE": 0,
    "CLASSIFICATION_TYPE": "U",
    "NORAD_CAT_ID": 38709,
    "ELEMENT_SET_NO": 999,
    "REV_AT_EPOCH": 66636,
    "BSTAR": 0.00010528,
    "MEAN_MOTION_DOT": 1.99e-06,
    "MEAN_MOTION_DDOT": 0
  },
  {
    "OBJECT_NAME": "SPOT 6",
    "OBJECT_ID": "2012-047A",
    "EPOCH": "2025-05-17T20:21:07.266528",
    "MEAN_MOTION": 14.58540249,
    "ECCENTRICITY": 0.0001081,
    "INCLINATION": 98.1781,
    "RA_OF_ASC_NODE": 206.1542,
    "ARG_OF_PERICENTER": 88.9011,
    "MEAN_ANOMALY": 271.2312,
    "EPHEMERIS_TYPE": 0,
    "CLASSIFICATION_TYPE": "U",
    "NORAD_CAT_ID": 38755,
    "ELEMENT_SET_NO": 999,
    "REV_AT_EPOCH": 67545,
    "BSTAR": 0.00011849,
    "MEAN_MOTION_DOT": 5.05e-06,
    "MEAN_MOTION_DDOT": 0
  },
  {
    "OBJECT_NAME": "PLEIADES 1B",
    "OBJECT_ID": "2012-068A",
    "EPOCH": "2025-05-17T19:07:39.389088",
    "MEAN_MOTION": 14.5858145,
    "ECCENTRICITY": 0.0001241,
    "INCLINATION": 98.1956,
    "RA_OF_ASC_NODE": 213.4875,
    "ARG_OF_PERICENTER": 96.7001,
    "MEAN_ANOMALY": 263.434,
    "EPHEMERIS_TYPE": 0,
    "CLASSIFICATION_TYPE": "U",
    "NORAD_CAT_ID": 39019,
    "ELEMENT_SET_NO": 999,
    "REV_AT_EPOCH": 66321,
    "BSTAR": 0.00012323,
    "MEAN_MOTION_DOT": 5.28e-06,
    "MEAN_MOTION_DDOT": 0
  },
  {
    "OBJECT_NAME": "GOKTURK 2",
    "OBJECT_ID": "2012-073A",
    "EPOCH": "2025-05-17T20:36:46.844928",
    "MEAN_MOTION": 14.74977252,
    "ECCENTRICITY": 0.0001607,
    "INCLINATION": 97.7128,
    "RA_OF_ASC_NODE": 349.5633,
    "ARG_OF_PERICENTER": 111.7733,
    "MEAN_ANOMALY": 248.3648,
    "EPHEMERIS_TYPE": 0,
    "CLASSIFICATION_TYPE": "U",
    "NORAD_CAT_ID": 39030,
    "ELEMENT_SET_NO": 999,
    "REV_AT_EPOCH": 66625,
    "BSTAR": 0.00010808,
    "MEAN_MOTION_DOT": 6.79e-06,
    "MEAN_MOTION_DDOT": 0
  },
  {
    "OBJECT_NAME": "LANDSAT 8",
    "OBJECT_ID": "2013-008A",
    "EPOCH": "2025-05-17T19:57:43.627680",
    "MEAN_MOTION": 14.57102158,
    "ECCENTRICITY": 0.0001305,
    "INCLINATION": 98.2262,
    "RA_OF_ASC_NODE": 208.6897,
    "ARG_OF_PERICENTER": 97.1793,
    "MEAN_ANOMALY": 262.9554,
    "EPHEMERIS_TYPE": 0,
    "CLASSIFICATION_TYPE": "U",
    "NORAD_CAT_ID": 39084,
    "ELEMENT_SET_NO": 999,
    "REV_AT_EPOCH": 65214,
    "BSTAR": 0.00011426,
    "MEAN_MOTION_DOT": 4.69e-06,
    "MEAN_MOTION_DDOT": 0
  },
  {
    "OBJECT_NAME": "SARAL",
    "OBJECT_ID": "2013-009A",
    "EPOCH": "2025-05-17T13:31:49.520640",
    "MEAN_MOTION": 14.32698944,
    "ECCENTRICITY": 0.0002623,
    "INCLINATION": 98.5539,
    "RA_OF_ASC_NODE": 324.2098,
    "ARG_OF_PERICENTER": 44.3444,
    "MEAN_ANOMALY": 315.7949,
    "EPHEMERIS_TYPE": 0,
    "CLASSIFICATION_TYPE": "U",
    "NORAD_CAT_ID": 39086,
    "ELEMENT_SET_NO": 999,
    "REV_AT_EPOCH": 63895,
    "BSTAR": 6.5507e-05,
    "MEAN_MOTION_DOT": 1.35e-06,
    "MEAN_MOTION_DDOT": 0
  },
  {
    "OBJECT_NAME": "GAOFEN-1",
    "OBJECT_ID": "2013-018A",
    "EPOCH": "2025-05-17T20:10:14.264832",
    "MEAN_MOTION": 14.76491364,
    "ECCENTRICITY": 0.0019208,
    "INCLINATION": 97.9502,
    "RA_OF_ASC_NODE": 211.9088,
    "ARG_OF_PERICENTER": 98.8446,
    "MEAN_ANOMALY": 261.494,
    "EPHEMERIS_TYPE": 0,
    "CLASSIFICATION_TYPE": "U",
    "NORAD_CAT_ID": 39150,
    "ELEMENT_SET_NO": 999,
    "REV_AT_EPOCH": 64994,
    "BSTAR": 0.00015051,
    "MEAN_MOTION_DOT": 1e-05,
    "MEAN_MOTION_DDOT": 0
  }
]